#dP2022  8 24  0  0  0.00000000      96 __u+U ITR00 FIT  IAC
## 2224 259200.00000000   900.00000000 59815 0.0000000000000
+  117   C06C07C08C09C10C11C12C13C14C16C19C20C21C22C23C24C25
+        C26C27C28C29C30C32C33C34C35C36C37C38C39C40C41C42C43
+        C44C45C46E01E02E03E04E05E07E08E09E10E11E12E13E14E15
+        E18E19E21E24E25E26E27E30E31E33E34E36G01G02G03G04G05
+        G06G07G08G09G10G11G12G13G14G15G16G17G18G19G20G21G22
+        G23G24G25G26G27G28G29G30G31G32J02J03R01R02R03R04R05
+        R07R08R09R11R12R13R14R15R17R18R19R20R21R24R25  0  0
++         7  8  6  7  7  7  7  8  8  6  6  6  7  5  8  6  6
++         7  8  6  6  6  6  7  7  6  6  7  8  9  8  7  5  6
++         6  7  6  5  5  7  5  7  6  6  5  6  7  6  5  6  6
++         5  7  7  5  7  7  6  6  6  6  6  5  5  7  6  8  6
++         5  5  9  8  6  6  5  6  3  6  6  5  7  6  7  5  5
++         7  6  5  4  6  7  5  7  6  9  7 10  8  7  5  7  5
++         6  6  7  7  6  8  7  7  6  7  6  7  7  6 10  0  0
%c M  cc GPS ccc cccc cccc cccc cccc ccccc ccccc ccccc ccccc
%c cc cc ccc ccc cccc cccc cccc cccc ccccc ccccc ccccc ccccc
%f  0.0000000  0.000000000  0.00000000000  0.000000000000000
%f  0.0000000  0.000000000  0.00000000000  0.000000000000000
%i    0    0    0    0      0      0      0      0         0
%i    0    0    0    0      0      0      0      0         0
/* INFORMATION & ANALYSIS CENTER (IAC)      ULTRA-RAPID DATA
/* S/V CLOCKS ARE ALIGNED TO GNSS TIME                      
/* G:C1WC2W R:C1PC2P E:C1XC5X C:C2IC6I J:C1CC2S             
/* PCV:IGS14_2218 OL/AL:FES2004  NONE     YN ORB:CoN CLK:CoN
*  2022 08 24 16 45  0.00000000
PC06 -18113.361487  35392.313976  13696.936769 999999.999999
PC07  -3352.177880  35947.312663  21950.329431 999999.999999
PC08  -9207.919696  19416.693542 -36300.491169 999999.999999
PC09 -11284.580707  34189.805832  21899.001086 999999.999999
PC10   2742.852687  38810.408186  17158.943824 999999.999999
PC11  18078.751574   -817.202792 -21167.589522 999999.999999
PC12   6020.887280  16155.117721 -21914.752576 999999.999999
PC13  -1789.777315  22145.263494 -35710.465413 999999.999999
PC14  18499.101166   9404.386353  18697.291528 999999.999999
PC16 -20473.925732  35106.722556  10872.114487 999999.999999
PC19 -16403.026112   1236.663037 -22521.731930 999999.999999
PC20 -17764.704350 -16918.211859 -13268.074027 999999.999999
PC21   8476.433998  26190.008131  -4648.989861 999999.999999
PC22  -5531.447553  19518.784087 -19180.599369 999999.999999
PC23  15026.358127 -12791.067578 -19717.523529 999999.999999
PC24  22899.282976  10758.034742  11747.347259 999999.999999
PC25  26937.531077  -2826.598516  -6677.363735 999999.999999
PC26   7175.565761  16101.244380  21618.529849 999999.999999
PC27   1205.282350 -21878.818178  17262.952453 999999.999999
PC28  15201.881933 -23296.929973   2150.932347 999999.999999
PC29 -20424.750087  11412.908220  15205.569657 999999.999999
PC30 -13675.463183  -8175.064538  22902.089489 999999.999999
PC32  -8593.768735 -26115.343307   4756.616965 999999.999999
PC33  16479.266117  -1200.913789  22489.147877 999999.999999
PC34  14418.033176   7101.050487 -22826.320598 999999.999999
PC35 -15127.053932  23417.372553   -881.004411 999999.999999
PC36 -27159.886398   1836.077670   6183.927339 999999.999999
PC37  -5445.964360 -16349.632013 -21930.763254 999999.999999
PC38 -17933.364073  19353.428517 -32916.898325 999999.999999
PC39 -22484.020919  35238.218094   4657.747467 999999.999999
PC40  -6927.238801  32490.073665  26082.395403 999999.999999
PC41   5920.997523 -19128.862216  19480.056649 999999.999999
PC42  17602.122894  17823.376368  12357.856222 999999.999999
PC43  20502.799118 -10608.069748 -15700.996894 999999.999999
PC44   -460.952885  22046.648092 -17099.807803 999999.999999
PC45 -14686.490389  12841.893712  19970.617634 999999.999999
PC46 -24007.915125  -9797.535820 -10353.104145 999999.999999
PE01 -13589.453373  10479.278202  24126.691188 999999.999999
PE02  13415.059920 -10621.713503 -24146.111904 999999.999999
PE03  12436.007342 -22626.513943  14459.721559 999999.999999
PE04   -623.253801  29423.688550   3189.038865 999999.999999
PE05  17189.152570  -2374.950068  23980.873910 999999.999999
PE07 -11874.263146 -18923.500203 -19410.242738 999999.999999
PE08    473.225161 -29403.034095  -3317.162820 999999.999999
PE09  11774.906207  18965.239426  19446.922427 999999.999999
PE10   6234.149206  14794.098698 -24880.832884 999999.999999
PE11  16790.968594   8596.250706 -22827.218379 999999.999999
PE12  -4558.333529  18357.517758 -22773.588867 999999.999999
PE13 -16084.767279  -9011.807767  23154.810605 999999.999999
PE14  19476.943781  -8694.733168 -20073.557286 999999.999999
PE15   4762.895243 -18346.213041  22733.310255 999999.999999
PE18 -13424.293934  23817.317068   7932.404701 999999.999999
PE19 -13535.678834  20569.069465 -16424.052693 999999.999999
PE21 -24849.164157  -5029.531750  15283.430432 999999.999999
PE24  22055.800231  19332.940708   3917.085561 999999.999999
PE25  24931.362039   5294.838137 -15038.486826 999999.999999
PE26 -27509.441705   6055.131823   9113.081118 999999.999999
PE27 -22703.415597 -18774.713834  -2891.117088 999999.999999
PE30  -6242.597946 -21213.715600 -19682.550132 999999.999999
PE31   7197.614970  21346.743835  19215.857104 999999.999999
PE33 -22683.320501  16805.219907  -8905.811942 999999.999999
PE34  22532.962945 -16900.890592   9061.485522 999999.999999
PE36  27309.543956  -5517.266495  -9998.068276 999999.999999
PG01    198.953528  15210.169598 -22041.091251 999999.999999
PG02  12843.739133 -17589.400303  15972.989478 999999.999999
PG03   7976.582441  20522.670775 -15055.709536 999999.999999
PG04   -495.584416  25407.550198   7563.660285 999999.999999
PG05   4325.440595 -15338.567379  21050.348876 999999.999999
PG06  25628.251745  -6217.263275  -3430.940259 999999.999999
PG07  16655.503745   8912.129527  19275.060388 999999.999999
PG08  -5449.499576  25754.990482   1407.797676 999999.999999
PG09   8509.812166  18926.302622  16484.730195 999999.999999
PG10 -22315.405886  -9395.730360 -11115.378250 999999.999999
PG11  22046.348832 -12238.755922   8288.774035 999999.999999
PG12  -5006.118202 -20772.945331 -16107.969004 999999.999999
PG13  13184.351357 -21421.901365   8069.201364 999999.999999
PG14  22081.237841  11109.770289  -9855.200372 999999.999999
PG15   2291.112990 -26261.503958    852.411157 999999.999999
PG16 -11292.100022   9796.202574  21685.562832 999999.999999
PG17  14057.117394   4080.790953 -21727.763171 999999.999999
PG18 -16893.087437  -8098.487510  18871.635865 999999.999999
PG19  16240.107403  -6231.457177 -20244.002132 999999.999999
PG20  16000.236772  -7035.130895  19940.484502 999999.999999
PG21  -9100.368980  17104.664409 -17210.585862 999999.999999
PG22 -16038.407695   9663.993748 -18350.014547 999999.999999
PG23 -21172.336444 -16074.730417  -1551.167367 999999.999999
PG24   3224.661331 -17482.751290 -19926.832683 999999.999999
PG25 -16360.319242 -20154.669856  -6546.347869 999999.999999
PG26 -18608.343780   3033.839856  18739.302918 999999.999999
PG27 -12467.812806  19490.686532  12464.619798 999999.999999
PG28  19705.311101   3982.426849 -16727.273737 999999.999999
PG29  -6133.923383 -19692.373003  16639.515376 999999.999999
PG30  24001.784222   1225.546809  11674.632895 999999.999999
PG31 -25834.157495   7042.826724  -1527.651109 999999.999999
PG32 -15271.045998   -643.456438 -21561.991724 999999.999999
PJ02 -27261.195227  20762.053478  29597.404093 999999.999999
PJ03 -34207.474841  24764.035367   4437.092593 999999.999999
PR01  12304.714468   5642.808775  21619.636067 999999.999999
PR02   6213.674267 -14504.699086  20102.264289 999999.999999
PR03  -2997.901909 -24547.816226   6413.174609 999999.999999
PR04 -10182.912501 -20829.539997 -10625.917046 999999.999999
PR05 -11861.689681  -5762.029125 -21832.948563 999999.999999
PR07   3403.497390  24626.393232  -5564.169831 999999.999999
PR08  10401.739515  20625.224126  10841.569666 999999.999999
PR09 -15322.548884   5967.908588  19493.947260 999999.999999
PR11  18534.964800  11495.545528  13257.275327 999999.999999
PR12  24603.526141   4349.082623  -5073.277521 999999.999999
PR13  16582.046513  -4889.695486 -18764.172031 999999.999999
PR14  -2606.274930 -11967.492579 -22353.317780 999999.999999
PR15 -19082.151979 -11537.982988 -12353.769055 999999.999999
PR17   8569.137144 -18108.545974  15763.253581 999999.999999
PR18  -5518.687714  -9093.847657  23196.818450 999999.999999
PR19 -16449.121530   3247.331480  19224.592317 999999.999999
PR20 -19460.629492  16396.125228   1513.932010 999999.999999
PR21  -7513.574193  17581.626922 -16908.632854 999999.999999
PR24  18827.312690 -17173.244564   -784.826186 999999.999999
PR25   6052.240626   9084.427469 -23030.628680 999999.999999
EOF
